BEIDOU 3 (C01)          
1 36287U 10001A   22251.90583953 -.00000301  00000+0  00000+0 0  9995
2 36287   1.6539  46.5710 0001834  14.6718  33.2027  1.00275386 46355
BEIDOU 5 (C06)          
1 36828U 10036A   22251.76645624 -.00000178  00000+0  00000+0 0  9994
2 36828  54.1986 175.4681 0030389 187.7693   8.5320  1.00273873 44410
BEIDOU 6 (C04)          
1 37210U 10057A   22250.83353569 -.00000130  00000+0  00000+0 0  9992
2 37210   0.9989  55.1117 0006300 136.9973 254.9820  1.00272484 43462
BEIDOU 7 (C07)          
1 37256U 10068A   22250.83530056 -.00000166  00000+0  00000+0 0  9991
2 37256  50.0645 288.6586 0024117 203.7071 263.2201  1.00281418 42976
BEIDOU 8 (C08)          
1 37384U 11013A   22251.89427090 -.00000161  00000+0  00000+0 0  9999
2 37384  60.4148  53.4319 0023760 177.1734 187.1341  1.00285505 41863
BEIDOU 9 (C09)          
1 37763U 11038A   22251.57987913 -.00000129  00000+0  00000+0 0  9991
2 37763  54.4828 177.9693 0099014 228.0666 245.2131  1.00263855 40837
BEIDOU 10 (C10)         
1 37948U 11073A   22251.71817917 -.00000124  00000+0  00000+0 0  9992
2 37948  50.1813 288.2953 0086681 219.3791 194.7760  1.00275612 39593
BEIDOU 11 (C05)         
1 38091U 12008A   22251.02860291  .00000037  00000+0  00000+0 0  9990
2 38091   1.7425  69.4756 0011723 343.8301   2.7529  1.00271373 38656
BEIDOU 12 (C11)         
1 38250U 12018A   22251.26452348 -.00000103  00000+0  00000+0 0  9999
2 38250  56.6699 350.8259 0022479 249.5204  42.3349  1.86234467 70624
BEIDOU 13 (C12)         
1 38251U 12018B   22251.37216637 -.00000102  00000+0  00000+0 0  9990
2 38251  56.5857 350.1414 0013418 248.7695 159.4222  1.86234238 70631
BEIDOU 15 (C14)         
1 38775U 12050B   22251.80861109  .00000023  00000+0  00000+0 0  9996
2 38775  55.4483 108.8796 0012655 332.0796 204.6847  1.86231505 68016
BEIDOU 16 (C02)         
1 38953U 12059A   22251.81432243 -.00000198  00000+0  00000+0 0  9991
2 38953   1.1266  81.1843 0024096 297.5976 346.3472  1.00273513 36096
BEIDOU 17 (C31)         
1 40549U 15019A   22251.84504735 -.00000163  00000+0  00000+0 0  9995
2 40549  51.7416 311.7899 0038640 197.0444 239.0459  1.00279687 27276
BEIDOU 18 (C57)         
1 40748U 15037A   22251.44966156 -.00000102  00000+0  00000+0 0  9994
2 40748  55.8363 348.9542 0002017  61.8988 307.5845  1.86233532 48467
BEIDOU 19 (C58)         
1 40749U 15037B   22251.30614377 -.00000102  00000+0  00000+0 0  9995
2 40749  55.8403 348.9490 0002452 311.9245  95.5458  1.86232943 48451
BEIDOU 20 (C18)         
1 40938U 15053A   22251.89942366 -.00000101  00000+0  00000+0 0  9998
2 40938  51.3721 274.9113 0046295 199.9049 293.5235  1.00273595 25546
BEIDOU IGSO-6 (C13)     
1 41434U 16021A   22249.47778145 -.00000130  00000+0  00000+0 0  9991
2 41434  58.2193  51.9947 0044674 215.0012 346.0473  1.00267418 23648
BEIDOU-2 G7 (C03)       
1 41586U 16037A   22251.90281278 -.00000375  00000+0  00000+0 0  9994
2 41586   1.5556  67.6627 0008480 357.2970 358.4118  1.00277882 22970
BEIDOU-3 M1 (C19)       
1 43001U 17069A   22251.21165664  .00000022  00000+0  00000+0 0  9996
2 43001  55.5991 108.9104 0008312 297.2864 355.5916  1.86231872 32938
BEIDOU-3 M2 (C20)       
1 43002U 17069B   22251.14278157  .00000021  00000+0  00000+0 0  9990
2 43002  55.5989 108.9486 0006913 326.0406 323.5621  1.86231415 32927
BEIDOU-3 M3 (C27)       
1 43107U 18003A   22251.63671832 -.00000104  00000+0  00000+0 0  9999
2 43107  55.2872 349.8290 0004236  72.2832 354.7309  1.86232607 31707
BEIDOU-3 M4 (C28)       
1 43108U 18003B   22251.87766358 -.00000105  00000+0  00000+0 0  9995
2 43108  55.2800 349.8092 0003180 231.8632  40.1129  1.86231009 31708
BEIDOU-3 M5 (C21)       
1 43207U 18018A   22250.84275138  .00000020  00000+0  00000+0 0  9993
2 43207  55.5582 109.0345 0005255 359.3826   0.7132  1.86231747 31076
BEIDOU-3 M6 (C22)       
1 43208U 18018B   22250.90942800  .00000020  00000+0  00000+0 0  9998
2 43208  55.5583 109.0370 0006464 312.8012  47.2371  1.86231682 31079
BEIDOU-3 M7 (C29)       
1 43245U 18029A   22251.23174752 -.00000101  00000+0  00000+0 0  9992
2 43245  55.1971 347.6055 0001025 164.1051 261.8865  1.86232796 30232
BEIDOU-3 M8 (C30)       
1 43246U 18029B   22250.08706650 -.00000099  00000+0  10000-3 0  9994
2 43246  55.1951 347.6739 0002867   6.6679  58.4686  1.86233022 30202
BEIDOU IGSO-7 (C16)     
1 43539U 18057A   22251.87971556 -.00000184  00000+0  00000+0 0  9997
2 43539  55.0910 174.9933 0052630 228.5116  14.9385  1.00285312 15348
BEIDOU-3 M9 (C23)       
1 43581U 18062A   22250.96912501  .00000021  00000+0  00000+0 0  9993
2 43581  54.2568 229.2591 0005959 274.1189 233.6305  1.86231995 27963
BEIDOU-3 M10 (C24)      
1 43582U 18062B   22251.37127705  .00000015  00000+0  00000+0 0  9997
2 43582  54.2562 229.2351 0005113 338.5745 170.6732  1.86232420 27976
BEIDOU-3 M11 (C25)      
1 43602U 18067A   22251.36025123  .00000013  00000+0  00000+0 0  9993
2 43602  54.3396 227.8576 0006853   0.6773 182.4107  1.86231648 27460
BEIDOU-3 M12 (C26)      
1 43603U 18067B   22251.49285692  .00000012  00000+0  00000+0 0  9996
2 43603  54.3361 227.8198 0004204 342.8716 199.4833  1.86231628 27483
BEIDOU-3 M13 (C32)      
1 43622U 18072A   22251.62004632  .00000023  00000+0  00000+0 0  9993
2 43622  55.5258 108.5597 0005029 294.7049   1.9943  1.86231902 26999
BEIDOU-3 M14 (C33)      
1 43623U 18072B   22251.79826978  .00000023  00000+0  00000+0 0  9997
2 43623  55.5280 108.5475 0003826 334.2573 172.1724  1.86231887 27008
BEIDOU-3 M15 (C34)      
1 43647U 18078A   22249.55593236 -.00000098  00000+0  10000-3 0  9996
2 43647  55.0927 347.8149 0005285   9.0191 329.6615  1.86232987 26466
BEIDOU-3 M16 (C35)      
1 43648U 18078B   22251.43701269 -.00000102  00000+0  00000+0 0  9995
2 43648  55.0885 347.7562 0003335  30.4099  37.0789  1.86232382 26525
BEIDOU-3 G1 (C59)       
1 43683U 18085A   22251.89375247 -.00000300  00000+0  00000+0 0  9995
2 43683   0.9812 153.1122 0004211  32.7946 263.7442  1.00276208 14245
BEIDOU-3 M17 (C36)      
1 43706U 18093A   22251.48702095  .00000013  00000+0  00000+0 0  9990
2 43706  54.3389 229.1330 0010973 276.1925  83.6544  1.86231822 25882
BEIDOU-3 M18 (C37)      
1 43707U 18093B   22251.08365656  .00000019  00000+0  00000+0 0  9991
2 43707  54.3399 229.1372 0009404 297.2504 243.4537  1.86232288 25867
BEIDOU-3 IGSO-1 (C38)   
1 44204U 19023A   22251.40031932 -.00000195  00000+0  00000+0 0  9997
2 44204  56.6810  52.0806 0023397 188.3557  10.4579  1.00284909 12545
BEIDOU-2 G8             
1 44231U 19027A   22251.90662433 -.00000270  00000+0  00000+0 0  9996
2 44231   1.0563  78.7342 0005882 114.7340 265.3266  1.00267805 12265
BEIDOU-3 IGSO-2 (C39)   
1 44337U 19035A   22251.75731735 -.00000186  00000+0  00000+0 0  9993
2 44337  55.1267 170.9834 0025757 192.6554  16.4420  1.00279287 11880
BEIDOU-3 M23 (C45)      
1 44542U 19061A   22251.42322562  .00000015  00000+0  00000+0 0  9998
2 44542  54.5656 229.2936 0008812 328.9247  30.9959  1.86231415 20131
BEIDOU-3 M24 (C46)      
1 44543U 19061B   22251.30257580  .00000016  00000+0  00000+0 0  9994
2 44543  54.5628 229.2674 0006476 310.6615 239.7887  1.86231901 20129
BEIDOU-3 IGSO-3         
1 44709U 19073A   22251.49936477 -.00000149  00000+0  10000-3 0  9993
2 44709  57.1291 295.5223 0027573 181.2099 170.3485  1.00283878 10627
BEIDOU-3 M21            
1 44793U 19078A   22251.37162556 -.00000102  00000+0  10000-3 0  9996
2 44793  54.9414 347.7644 0005162  18.7443  51.0401  1.86232413 18990
BEIDOU-3 M22            
1 44794U 19078B   22251.50469623 -.00000102  00000+0  00000+0 0  9992
2 44794  54.9155 347.7497 0003023  14.6886  56.1197  1.86232862 18995
BEIDOU-3 M19            
1 44864U 19090A   22251.01007760  .00000020  00000+0  00000+0 0  9998
2 44864  55.4606 108.7875 0015511 271.9790  21.6180  1.86232080 18566
BEIDOU-3 M20            
1 44865U 19090B   22251.41732135  .00000022  00000+0  00000+0 0  9996
2 44865  55.4632 108.8056 0013620 287.0934   9.3924  1.86232002 18546
BEIDOU-3 G2             
1 45344U 20017A   22251.81093757 -.00000161  00000+0  00000+0 0  9999
2 45344   2.0229 356.2460 0004563 148.0911 215.4739  1.00272599  9448
BEIDOU-3 G3             
1 45807U 20040A   22251.82814397 -.00000376  00000+0  00000+0 0  9999
2 45807   1.2590 305.8648 0007076 332.3495 118.3353  1.00273135  8268
